SchoolName,SchoolID,Address,City,State,Zip,Lat,Lon
Calumet,1,3900 Calhoun St,Gary,IN,46408,41.5478448152091,-87.4084532338318
East Chicago Central,2,1100 W Columbus Dr,East Chicago,IN,46312,41.6395871288847,-87.4863386508126
Gary West Side,3,W 9th Ave Gerry St,Gary,IN,46406,41.59921,-87.41224
Griffith,4,600 N Wiggs St,Griffith,IN,46319,41.5327694482255,-87.4375031911223
Hammond,5,5926 Calumet Ave,Hammond,IN,46320,41.60556,-87.5091033976442
Hammond Academy of Science & Technology,6,33 Muenich Ct,Hammond,IN,46320,41.6174468939139,-87.5232398693275
Hammond Bishop Noll,7,1519 Hoffman St,Hammond,IN,46327,41.6269163847121,-87.4929844645194
Hammond Clark,8,1921 Davis Ave,Whiting,IN,46394,41.6786065841176,-87.5071763943405
Hammond Gavit,9,1670 175th St,Hammond,IN,46324,41.5774089208018,-87.4875264005292
Hammond Morton,10,6915 Grand Ave,Hammond,IN,46323,41.5874216666667,-87.4420066538892
Highland,11,9135 Erie St,Highland,IN,46322,41.5475135897436,-87.460196767107
Lake Central,12,8400 Wicker Ave,St John,IN,46373,41.4658266666667,-87.4705830018622
Munster,13,8808 Columbia Ave,Munster,IN,46321,41.5533884839335,-87.5032539272124
Whiting,14,1751 Oliver St,Whiting,IN,46394,41.6814286770363,-87.4942051075453
21st Century Charter - Gary,15,556 Washington St,Gary,IN,46402,41.6007094032821,-87.3386245400665
Andrean,16,5959 Broadway,Merrillville,IN,46410,41.5103378575648,-87.3358868947179
Crown Point,17,1500 S Main St,Crown Point,IN,46307,41.3911728000533,-87.3642580064705
Lighthouse CPA,18,725 Clark Road,Gary,IN,46406,41.5982103448276,-87.3936466232428
Gary Roosevelt,19,730 W 25th Ave,Gary,IN,46407,41.5733971325916,-87.34558
Hanover Central,20,10120 W 133rd Ave,Cedar Lake,IN,46303,41.3774408520788,-87.4573810881636
Hebron,21,509 S Main St,Hebron,IN,46341,41.31259,-87.199697428962
Hobart,22,2211 E 10th St,Hobart,IN,46342,41.5215817209557,-87.2321673030738
Lowell,23,2051 E Commercial Ave,Lowell,IN,46356,41.2899951001994,-87.3934440333764
Merrillville,24,276 E 68th Pl,Merrillville,IN,46410,41.4934893752508,-87.3321418109885
River Forest,25,3300 Indiana St,Hobart,IN,46342,41.5577346173255,-87.2786849713836
Boone Grove,26,260 S 500 W,Valparaiso,IN,46385,41.3966734987416,-87.161962807025
Chesterton,27,2125 S 11th St,Chesterton,IN,46304,41.587143038674,-87.0665266546805
Lake Station Edison,28,3304 Parkside Ave,Lake Station,IN,46405,41.5765185726008,-87.2437779220845
LaPorte,29,602 F St,La Porte,IN,46350,41.6003414587748,-86.7255833724366
Marquette Catholic,30,306 W 10th St,Michigan City,IN,46360,41.7108502934195,-86.9031896916447
Michigan City,31,8466 W Pahs Rd,Michigan City,IN,46360,41.6800603530375,-86.8635382996945
New Prairie,32,5333 N Cougar Rd,New Carlisle,IN,46552,41.6847628711328,-86.5645003503961
Portage,33,6450 US Hwy 6,Portage,IN,46368,41.5507771303007,-87.1655589408146
South Central (Union Mills),34,9808 S 600 W,Union Mills,IN,46382,41.4714758510258,-86.8152429340245
Valparaiso,35,2727 N Campbell St,Valparaiso,IN,46385,41.4931803995161,-87.0661466943144
Washington Township,36,381 E State Rd 2,Valparaiso,IN,46383,41.484051332221,-86.9930045738519
Westville,37,207 E Valparaiso St,Westville,IN,46391,41.5409337792273,-86.89456186859
Wheeler,38,587 W 300 N,Valparaiso,IN,46385,41.4782452007498,-87.1791754263277
Covenant Christian (DeMotte),39,611 15th St SW,De Motte,IN,46310,41.1878837335886,-87.2056108998081
Kankakee Valley,40,3923 IN-10,Wheatfield,IN,46392,41.1864935969674,-86.9692452275961
Knox,41,1 Redskin Trail,Knox,IN,46534,41.2860171325916,-86.62495
Kouts,42,302 E College Ave,Kouts,IN,46347,41.3144927426693,-87.0229407384127
LaCrosse,43,11 N Michigan St,La Crosse,IN,46348,41.3173822194572,-86.8904216346186
Morgan Township,44,299 IN-49,Valparaiso,IN,46383,41.3907876067475,-87.0268774909597
North Judson-San Pierre,45,1 Bluejay Dr,North Judson,IN,46366,41.2149430326146,-86.7862010956786
North Newton,46,1641 W 250 N,Morocco,IN,47963,41.0354992375901,-87.4242999877683
Oregon-Davis,47,5990 N 750 E,Hamlet,IN,46532,41.3895598656571,-86.5530863068051
Rensselaer Central,48,1106 E Grace St,Rensselaer,IN,47978,40.9337371325916,-87.138245
South Newton,49,13102 S 50 E,Kentland,IN,47951,40.8075333817146,-87.3824990518831
West Central,50,1852 US-421,Francesville,IN,47946,41.0287058333333,-86.8917082183414
Attica,51,211 E Sycamore St,Attica,IN,47918,40.2797328674084,-87.2526316666667
Benton Central,52,4241 E 300 S,Oxford,IN,47971,40.5624746069735,-87.241374005538
Covington,53,1017 6th St,Covington,IN,47932,40.1437928488935,-87.395547279947
Crawfordsville,54,1 W Athenian Dr,Crawfordsville,IN,47933,40.0210438077699,-86.9081609999616
Fountain Central,55,750 US-136,Veedersburg,IN,47987,40.1046271138628,-87.2251570369518
Frontier,56,109 N 6th St,Chalmers,IN,47929,40.6638963506049,-86.8627789100929
North Montgomery,57,5945 US-231,Crawfordsville,IN,47933,40.1249950376764,-86.9047777973464
North Vermillion,58,5555 N Falcon Dr,Cayuga,IN,47928,39.9709812298393,-87.4514310693337
North White,59,310 East Broadway,Monon,IN,47959,40.8681210052248,-86.8775523209674
Seeger,60,1222 IN-263,West Lebanon,IN,47991,40.2984986686784,-87.3867397938588
Southmont,61,6460 US-231,Crawfordsville,IN,47933,39.9468550588126,-86.9026866355567
Tri-County,62,11298 W 100 S,Wolcott,IN,47995,40.7364492398128,-87.0855158996734
Twin Lakes,63,300 S 3rd St,Monticello,IN,47960,40.7425251912893,-86.7694608859361
Clinton Central,64,815 IN-29,Michigantown,IN,46057,40.2979811524996,-86.3931256834029
Clinton Prairie,65,2400 S County Rd 450 W,Frankfort,IN,46041,40.2521569783233,-86.5905345922088
Delphi Community,66,501 Armory Rd,Delphi,IN,46923,40.5765921283407,-86.6674735784095
Faith Christian,67,5526 SR 26 East bldg 2,Lafayette,IN,47905,40.4178671325916,-86.7994807920085
Frankfort,68,1 S Maish Rd,Frankfort,IN,46041,40.28095,-86.4869702443477
Harrison (West Lafayette),69,5701 N 50 W,West Lafayette,IN,47906,40.4995615301713,-86.9158540274233
Lafayette Central Catholic,70,2410 S 9th St,Lafayette,IN,47909,40.3917745914294,-86.8860370265944
Lafayette Jefferson,71,1801 S 18th St,Lafayette,IN,47905,40.4000631759647,-86.8764099749945
McCutcheon,72,4951 US-231,Lafayette,IN,47909,40.3847999913034,-86.9175080815688
Rossville,73,1 Robert Egly Dr,Rossville,IN,46065,40.4150329062616,-86.5948242871983
West Lafayette,74,1105 Grant St,West Lafayette,IN,47906,40.4363621939493,-86.910801113188
Western Boone,75,1205 IN-75,Thorntown,IN,46071,40.0574,-86.619570835415
Argos,76,500 Yearick St,Argos,IN,46501,41.2405609849029,-86.2497453949664
Caston,77,9815 IN-25,Rochester,IN,46975,40.9121216760227,-86.2833701665399
Culver Academies,78,1300 Academy Rd,Culver,IN,46511,41.2229218217504,-86.4066312763055
Culver Community,79,701 School St,Culver,IN,46511,41.2228036452029,-86.4244414153299
Manchester,80,1 Squire Drive,Manchester,IN,46962,41.0100313562167,-85.7719713687542
North Miami,81,570 East 900 North,Denver,"IN,",46926,40.8954201321646,-86.0647187202794
Plymouth,82,1 Big Red Dr,Plymouth,IN,46563,41.3461271228912,-86.3046148478057
Rochester Community,83,1645 S Park Rd,Rochester,IN,46975,41.0571227594599,-86.2254973562135
Tippecanoe Valley,84,8345 State Rte 19,Akron,IN,46910,41.1136022681192,-86.038323274193
Triton,85,300 Triton Dr,Bourbon,IN,46504,41.2996701815194,-86.1097186012238
Warsaw Community,86,1 Tiger Ln,Warsaw,IN,46580,41.2231170362719,-85.8627231677638
Carroll (Flora),87,2362 IN-18,Flora,IN,46929,40.5467828674084,-86.4796918181818
Cass,88,6422 IN-218,Walton,IN,46994,40.6636528674084,-86.2494339622641
Eastern (Greentown),89,421 S Harrison St,Greentown,IN,46936,40.4736344546529,-85.9705642102016
Kokomo,90,2501 S Berkley Rd,Kokomo,IN,46902,40.45606,-86.1557102232966
Logansport,91,1 Berry Ln,Logansport,IN,46947,40.7526476939512,-86.3326421949238
Maconaquah,92,200 E 800 S,Bunker Hill,IN,46914,40.6505271290302,-86.0661786973493
Northwestern,93,3431 County Rd N 400 W,Kokomo,IN,46901,40.5315800753102,-86.2033657083769
Peru,94,401 N Broadway,Peru,IN,46970,40.7604003756179,-86.0733846132408
Pioneer,95,417 N Chicago St,Royal Center,IN,46978,40.8684606912944,-86.5040718396439
Taylor,96,3794 300 S,Kokomo,IN,46902,40.4343952187677,-86.0549323421638
Western,97,2600 County Rd S 600 W,Russiaville,IN,46979,40.4366930301618,-86.2426452444866
Winamac Community,98,715 School Dr,Winamac,IN,46996,41.0459537561529,-86.5969743277036
Bremen,99,511 W Grant St,Bremen,IN,46506,41.4432066264081,-86.1513149860687
Glenn,100,201 John Glenn Dr,Walkerton,IN,46574,41.4584371325916,-86.47929
LaVille,101,69969 U S 31,Lakeville,IN,46536,41.4783660206555,-86.3022764261957
Mishawaka,102,1202 Lincolnway E,Mishawaka,IN,46544,41.6620891184571,-86.1604398006255
Mishawaka Marian,103,1311 S Logan St,Mishawaka,IN,46544,41.6490629333333,-86.1965435214351
Penn,104,56100 N Bittersweet Rd,Mishawaka,IN,46545,41.6794421319082,-86.109411107846
South Bend Adams,105,808 Twyckenham Dr,South Bend,IN,46615,41.6672154479786,-86.2253975887359
South Bend Career Academy,106,3801 Crescent Cir,South Bend,IN,46628,41.7280295933413,-86.3304781939317
South Bend Clay,107,19131 Darden Rd,South Bend,IN,46637,41.7304871325916,-86.2381367346939
South Bend Riley,108,1902 S Fellows Street,South Bend,IN,46613,41.65398,-86.2442164645558
South Bend St Joseph,109,453 N Notre Dame Ave,South Bend,IN,46617,41.6815655986164,-86.2386468154534
South Bend Washington,110,4747 W Washington St,South Bend,IN,46619,41.6742771325916,-86.314183833589
Bethany Christian,111,2904 S Main St,Goshen,IN,46526,41.5458092041193,-85.828156335436
Concord,112,59117 Minuteman Way,Elkhart,IN,46517,41.6337060535969,-85.9273662908103
Elkhart Central,113,1 Blazer Blvd,Elkhart,IN,46516,41.6844547332448,-85.9610998126722
Elkhart Christian Academy,114,25943 Co Rd 22,Elkhart,IN,46517,41.6378547824365,-85.9647196751426
Elkhart Memorial,115,2608 California Rd,Elkhart,IN,46514,41.6955282843499,-86.0131069919405
Fairfield,116,67530 US-33,Goshen,IN,46526,41.5170986007794,-85.7691997406806
Goshen,117,401 Lincolnway E,Goshen,IN,46526,41.5820731964959,-85.8242198032136
Jimtown,118,59021 Co Rd 3,Elkhart,IN,46517,41.6375195561479,-86.0221804958521
Lakeland Christian Academy,119,1093 S 250 E,Winona Lake,IN,46590,41.2180742508381,-85.7946066113508
Northridge,120,56779 Northridge Dr,Middlebury,IN,46540,41.6729732473291,-85.7254663489135
NorthWood,121,2101 N Main St,Nappanee,IN,46550,41.4577169042316,-86.0012670210221
Wawasee,122,12659 Syracuse Webster Rd,Syracuse,IN,46567,41.4078221370465,-85.75434862312
Angola,123,779 John McBride Ave,Angola,IN,46703,41.6339606254415,-84.9702380513812
Central Noble,124,401 E Highland St,Albion,IN,46701,41.3978041185508,-85.4196492664932
Churubusco,125,1 Eagle Dr,Churubusco,IN,46723,41.2292728238169,-85.322060752361
DeKalb,126,3424 Co Rd 427,Waterloo,IN,46793,41.4077233285638,-85.037929775185
East Noble,127,901 Garden St,Kendallville,IN,46755,41.434649890137,-85.2588659964061
Eastside,128,603 E Green St,Butler,IN,46721,41.4312656076675,-84.8600768471773
Fremont,129,701 Toledo St,Fremont,IN,46737,41.7309371325916,-84.925325
Hamilton,130,903 S Wayne St,Hamilton,IN,46742,41.5229770834882,-84.9182057501856
Lakeland,131,805 E 075 N,LaGrange,IN,46761,41.6521647082511,-85.4117566636374
Prairie Heights,132,245 S 1150 E,LaGrange,IN,46761,41.6384515151848,-85.2019365199864
West Noble,133,5094 N US 33,Ligonier,IN,46767,41.4289039636813,-85.5871426512181
Westview,134,1635 600 W,Topeka,IN,46571,41.6167425311347,-85.5406715971739
Carroll (Fort Wayne),135,3701 Carroll Rd,Fort Wayne,IN,46818,41.19141287225,-85.1915684686868
Columbia City,136,600 N Whitley St,Columbia City,IN,46725,41.1628115944572,-85.4853678591644
Fort Wayne Bishop Dwenger,137,1300 E Washington Center Rd,Fort Wayne,IN,46825,41.1329207063854,-85.1246978753482
Fort Wayne Blackhawk Christian,138,7400 E State Blvd,Fort Wayne,IN,46815,41.1063233009463,-85.0451125761199
Fort Wayne Concordia Lutheran,139,1601 St Joe River Dr,Fort Wayne,IN,46805,41.09892,-85.11768
Fort Wayne North Side,140,475 E State Blvd,Fort Wayne,IN,46805,41.0965871266032,-85.1349382994258
Fort Wayne Northrop,141,7001 Coldwater Rd,Fort Wayne,IN,46825,41.1458155786678,-85.136762011254
Fort Wayne Snider,142,4600 Fairlawn Pass,Fort Wayne,IN,46815,41.1087329435297,-85.0804439365996
Garrett,143,801 E Houston St,Garrett,IN,46738,41.3483083252603,-85.1263132769354
Homestead,144,4310 Homestead Rd,Fort Wayne,IN,46814,41.0448793333333,-85.284521826328
Lakewood Park Christian,145,5555 Co Rd 29,Auburn,IN,46706,41.3302134282017,-85.0504820164268
Leo,146,14600 Amstutz Rd,Leo,IN,46765,41.2193752704336,-85.0187178241029
Whitko,147,1 Big Blue Ave,South Whitley,IN,46787,41.0829628674084,-85.63275
Adams Central,148,222 W Washington St,Monroe,IN,46772,40.7451353759904,-84.9443998006675
Bellmont,149,625 Stadium Dr,Decatur,IN,46733,40.8355276116806,-84.911782404789
Bluffton,150,1 Tiger Trl,Bluffton,IN,46714,40.7232410140811,-85.1643254744432
Fort Wayne Bishop Luers,151,333 E Paulding Rd,Fort Wayne,IN,46816,41.0317839614723,-85.1332798930409
Fort Wayne Canterbury,152,3210 Smith Rd,Fort Wayne,IN,46804,41.0526886117581,-85.2098512197629
Fort Wayne South Side,153,3601 S Calhoun St,Fort Wayne,IN,46807,41.0534125390571,-85.1373081812628
Fort Wayne Wayne,154,9100 Winchester Rd,Fort Wayne,IN,46819,41.0015051104595,-85.1377865157453
Heritage,155,13608 Monroeville Rd,Monroeville,IN,46773,40.9779268514789,-84.961603453291
New Haven,156,1300 Green Rd,New Haven,IN,46774,41.0643129074563,-85.0111457329801
Norwell,157,1100 US-224,Ossian,IN,46777,40.8298128674084,-85.2029242527764
Smith Academy for Excellence,158,725 W Washington Blvd,Fort Wayne,IN,46802,41.0756357263559,-85.1485020929598
South Adams,159,1000 Parkway St,Berne,IN,46711,40.6482752949573,-84.9615696539727
Woodlan,160,17215 Woodburn Rd,Woodburn,IN,46797,41.1236071325916,-84.92061
Blackford,161,2392 IN-3,Hartford City,IN,47348,40.4853168120391,-85.3699716731491
Eastbrook,162,560 S 900 E,Marion,IN,46953,40.5739200001308,-85.5040558551008
Huntington North,163,450 Macgahan St,Huntington,IN,46750,40.8901598754528,-85.5083280958696
Madison-Grant,164,11700 S E 00 W,Fairmount,IN,46928,40.3837258822568,-85.6718073808209
Marion,165,750 W 26th St,Marion,IN,46953,40.5375571221423,-85.6672222275135
Mississinewa,166,205 E North H St,Gas City,IN,46933,40.4952595298451,-85.6139119412971
Northfield,167,154 W 200 N,Wabash,IN,46992,40.8544921204037,-85.7944474171558
Oak Hill,168,7756 W Delphi Pike - 27,Converse,IN,46919,40.5752207302874,-85.8211950250881
Southern Wells,169,9120 S 300 W,Poneto,IN,46781,40.6093892587036,-85.278472033304
Southwood,170,564 IN-124,Wabash,IN,46992,40.738867778711,-85.8010979333376
Wabash,171,580 N Miami St,Wabash,IN,46992,40.8068717809706,-85.8240699822234
Alexandria Monroe,172,1 Burden Ct,Alexandria,IN,46001,40.2494969533612,-85.6779703722578
Anderson,173,4610 Madison Ave,Anderson,IN,46013,40.0667365940301,-85.6918708661389
Anderson Preparatory Academy,174,101 W 29th St,Anderson,IN,46016,40.0871428674084,-85.68048
Blue River Valley,175,4741 Viking Trail,New Castle,IN,47362,40.0008664456128,-85.3279730824476
Daleville,176,8400 S Bronco Dr,Daleville,IN,47334,40.1180879534728,-85.5551106955807
Elwood Community,177,1137 N 19th St,Elwood,IN,46036,40.2885012696918,-85.8366402319721
Frankton,178,610 E Clyde St,Frankton,IN,46044,40.2197171325916,-85.7737968965517
Lapel,179,1850 S 900 W,Lapel,IN,46051,40.0604,-85.8363
Liberty Christian,180,2323 Columbus Ave,Anderson,IN,46016,40.0930074622395,-85.6671954541163
Mt Vernon (Fortville),181,8112 N 200 W,Fortville,IN,46040,39.9003807430363,-85.8433935428335
Pendleton Heights,182,1 Arabian Dr,Pendleton,IN,46064,39.9967748827756,-85.7369892398093
Shenandoah,183,7354 US-36,Middletown,IN,47356,40.0047187079983,-85.5254226572572
Yorktown,184,1100 S Tiger Dr,Yorktown,IN,47396,40.1832968020473,-85.4948895055438
Cowan,185,9401 S Nottingham St,Muncie,IN,47302,40.1059929804391,-85.3925392501513
Delta,186,3400 IN-28,Muncie,IN,47303,40.2774183407094,-85.3475790654103
Jay County,187,2072 IN-67,Portland,IN,47371,40.4305998989879,-85.0203368498591
Monroe Central,188,1878 N 1000 W,Parker City,IN,47368,40.191523387268,-85.1661595184125
Muncie Burris,189,2201 W University Ave,Muncie,IN,47303,40.1974973161715,-85.4122385751701
Muncie Central,190,801 N Walnut St,Muncie,IN,47305,40.2012727980417,-85.3864695068473
Randolph Southern,191,3 Rebel Dr,Lynn,IN,47355,40.0526464060935,-84.9466550219777
Union (Modoc),192,8707 US-36,Modoc,IN,47358,40.0479728674084,-85.1402004761905
Union City,193,603 N Walnut St,Union City,IN,47390,40.2047003414347,-84.8145944028345
Wapahani,194,10401 E Co Rd 167 S,Selma,IN,47383,40.1684625785907,-85.2643434059629
Wes-Del,195,10000 N 600 W,Gaston,IN,47342,40.2795378417878,-85.5005680049388
Winchester Community,196,700 N Union St,Winchester,IN,47394,40.1804085261983,-84.9759087086429
Avon,197,7575 E County Rd 150 S,Avon,IN,46123,39.7407628799279,-86.3887175902384
Bethesda Christian,198,7950 N County Rd 650 E,Brownsburg,IN,46112,39.8790645511447,-86.4115318395027
Brownsburg,199,1000 S Odell St,Brownsburg,IN,46112,39.8303858463736,-86.3872984891637
Cascade,200,6565 S County Rd 200 W,Clayton,IN,46118,39.6658789620783,-86.5599452892791
Cloverdale,201,205 Market St,Cloverdale,IN,46120,39.5117562662076,-86.7928049936346
Danville Community,202,100 Warrior Way,Danville,IN,46122,39.75422150145,-86.5408556891164
Greencastle,203,910 E Washington St,Greencastle,IN,46135,39.6438367456332,-86.8439374970437
North Putnam,204,8869 N County Road 250 E,Roachdale,IN,46172,39.789319202345,-86.8023986702424
Plainfield,205,1 Red Pride Drive,Plainfield,IN,46168,39.68203,-86.3766881868724
South Putnam,206,1780 US-40,Greencastle,IN,46135,39.5846634834703,-86.8180072561007
Tri-West Hendricks,207,7883 IN-39,Lizton,IN,46149,39.8771894117647,-86.5432413070958
Ben Davis,208,1200 N Girls School Rd,Indianapolis,IN,46214,39.7828499863082,-86.2886808283679
Covenant Christian (Indianapolis),209,7525 W 21st St,Indianapolis,IN,46214,39.7936228984373,-86.2950462035056
Decatur Central,210,5251 Kentucky Ave,Indianapolis,IN,46221,39.6880463171848,-86.2778802531483
Herron,211,110 E 16th St,Indianapolis,IN,46202,39.7885670897578,-86.155454460169
Indiana Math & Science Academy,212,7435 N Keystone Ave,Indianapolis,IN,46240,39.8894727412345,-86.1217208360044
Indianapolis Crispus Attucks,213,1140 Doctor M L K Jr St,Indianapolis,IN,46202,39.78355,-86.16371
Indianapolis Northwest,214,5525 W 34th St,Indianapolis,IN,46224,39.8163106274407,-86.2567538404662
Indianapolis Shortridge,215,3401 N Meridian St,Indianapolis,IN,46208,39.81745,-86.15659146252
International School of Indiana,216,4330 N Michigan Rd,Indianapolis,IN,46208,39.832964575964,-86.1849633427211
Pike,217,5401 W 71st St,Indianapolis,IN,46268,39.8817067379652,-86.2540927826598
Providence Cristo Rey,218,75 N Belleview Pl,Indianapolis,IN,46222,39.7671536734437,-86.2027282452226
Speedway,219,5357 W 25th St,Speedway,IN,46224,39.8016810618498,-86.2561623165164
Zionsville,220,1000 Mulberry St,Zionsville,IN,46077,39.9617294204334,-86.2717511862786
Carmel,221,520 E Main St,Carmel,IN,46032,39.9785942997293,-86.1203980356573
Fishers,222,13000 Promise Rd,Fishers,IN,46038,39.9778030127991,-85.9705168645478
Guerin Catholic,223,15300 Gray Rd,Noblesville,IN,46062,40.0112359566591,-86.0895111256386
Hamilton Heights,224,25802 State Rte 19,Arcadia,IN,46030,40.1655941507957,-86.0132966518005
Hamilton Southeastern,225,13910 E 126th St,Fishers,IN,46037,39.9725871325916,-85.9157002222897
Lebanon,226,510 Tiger Way,Lebanon,IN,46052,40.04438,-86.46009
Noblesville,227,18111 Cumberland Rd,Noblesville,IN,46060,40.0512419986725,-85.9959083781534
Sheridan,228,24185 Hinesley Rd,Sheridan,IN,46069,40.139839352974,-86.2181343845923
Tindley,229,3960 Meadows Dr,Indianapolis,IN,46205,39.8281171481396,-86.1131117025187
Tipton,230,619 S Main St,Tipton,IN,46072,40.27444,-86.040920261654
University,231,2825 W 116th St,Carmel,IN,46032,39.9554928674084,-86.2122
Westfield,232,18250 N Union St,Westfield,IN,46074,40.0548976083807,-86.1278580141749
Brebeuf Jesuit Preparatory,233,2801 W 86th St,Indianapolis,IN,46268,39.9116528805416,-86.2095850257348
Heritage Christian,234,6401 E 75th St,Indianapolis,IN,46250,39.8904979547818,-86.0576936209387
Indiana School for the Deaf,235,1200 E 42nd St,Indianapolis,IN,46205,39.8328387464081,-86.1388999557052
Indianapolis Arlington,236,4825 N Arlington Ave,Indianapolis,IN,46226,39.8438664708867,-86.0648060759752
Indianapolis Arsenal Technical,237,1500 E Michigan St,Indianapolis,IN,46202,39.7744271252292,-86.1334318488731
Indianapolis Bishop Chatard,238,5885 Crittenden Ave,Indianapolis,IN,46220,39.8613843283453,-86.128001437273
Indianapolis Cardinal Ritter,239,3360 W 30th St,Indianapolis,IN,46222,39.8098571325916,-86.2152033333333
Indianapolis Cathedral,240,5225 E 56th St,Indianapolis,IN,46226,39.8548528927587,-86.0801365653517
Lawrence Central,241,7300 E 56th St,Indianapolis,IN,46226,39.8551971325916,-86.04053
Lawrence North,242,7802 Hague Rd,Indianapolis,IN,46256,39.8972141304348,-86.0331787451067
North Central (Indianapolis),243,1801 E 86th St,Indianapolis,IN,46240,39.9123228689631,-86.1279308513453
Park Tudor,244,7200 N College Ave,Indianapolis,IN,46240,39.88542,-86.1460087143543
Beech Grove,245,5330 Hornet Ave,Beech Grove,IN,46107,39.7113869773764,-86.0779984790909
Eastern Hancock,246,10320 250N,Charlottesville,IN,46117,39.8228945859744,-85.6125287861203
Franklin Central,247,6215 S Franklin Rd,Indianapolis,IN,46259,39.6773981415929,-86.0184318250777
Greenfield-Central,248,810 N Broadway St,Greenfield,IN,46140,39.7924691666667,-85.7796084726249
Indianapolis Emmerich Manual,249,2405 Madison Ave,Indianapolis,IN,46225,39.734265207529,-86.1538839246411
Indianapolis Lutheran,250,5555 S Arlington Ave,Indianapolis,IN,46237,39.68685,-86.0633618006891
Indianapolis Scecina Memorial,251,5000 Nowland Ave,Indianapolis,IN,46201,39.7866371325916,-86.08603
Lighthouse Charter South,252,1780 Sloan Ave,Indianapolis,IN,46203,39.7429018841548,-86.0877170481362
Morristown,253,223 S Patterson St,Morristown,IN,46161,39.6723735757734,-85.7009500344162
New Palestine,254,4485 S Victory Dr,New Palestine,IN,46163,39.7187783342286,-85.8912997748761
Roncalli,255,3300 Prague Rd,Indianapolis,IN,46227,39.6903132139528,-86.1089203785331
Triton Central,256,4774 W 600 N,Fairland,IN,46126,39.6105619155828,-85.8719208288753
Warren Central,257,9500 E 16th St,Indianapolis,IN,46229,39.7896245176773,-85.9986256126354
Cambridge City Lincoln,258,205 E Parkway Dr,Cambridge City,IN,47327,39.8152334819307,-85.1658764034392
Centerville,259,507 Willow Grove Rd,Centerville,IN,47330,39.8131668177231,-85.0010791360203
Connersville,260,1100 Spartan Dr,Connersville,IN,47331,39.6358969405811,-85.1626925098707
Franklin County,261,1 Wildcat Ln,Brookville,IN,47012,39.4329402997626,-84.9973459758807
Hagerstown,262,701 Baker Rd,Hagerstown,IN,47346,39.9192548275814,-85.1622811973748
Knightstown,263,8139 US-40,Knightstown,IN,46148,39.7939255695646,-85.5408689188152
New Castle,264,801 Parkview Dr,New Castle,IN,47362,39.9139431053981,-85.3760994938897
Northeastern,265,7295 US-27,Fountain City,IN,47341,39.9347499152608,-84.9136476448329
Richmond,266,380 Hub Etchison Pkwy,Richmond,IN,47374,39.8233219506705,-84.9010851169265
Rushville Consolidated,267,1201 Lions Path,Rushville,IN,46173,39.6205560224556,-85.4480903950114
Seton Catholic,268,233 S 5th St,Richmond,IN,47374,39.8252384213735,-84.8955204817783
Tri,269,6972 IN-103,Straughn,IN,47387,39.8315272763619,-85.3527307768361
Union County,270,410 Patriot Blvd,Liberty,IN,47353,39.6356121221516,-84.9212123547798
Batesville,271,1 Bulldog Blvd W,Batesville,IN,47006,39.3096377878065,-85.2323586291548
East Central,272,1 Trojan Rd A,St Leon,IN,47012,39.2805829266833,-84.9755047916245
Greensburg,273,1000 E Central Ave,Greensburg,IN,47240,39.3401371244914,-85.4689619271925
Jac-Cen-Del,274,4544 US-421,Osgood,IN,47037,39.1403906575663,-85.2947255964218
Milan,275,609 N Warpath Dr,Milan,IN,47031,39.1293121764336,-85.1297832420547
North Decatur,276,3172 IN-3,Greensburg,IN,47240,39.382630484893,-85.4793536298862
Oldenburg Academy,277,1 Twister Cir,Oldenburg,IN,47036,39.38494,-85.23793
Rising Sun,278,210 S Henrietta St,Rising Sun,IN,47040,38.9502774639911,-84.8590554365349
South Dearborn,279,5770 Highlander Pl,Aurora,IN,47001,39.0620471325916,-84.9271138450234
South Decatur,280,8885 Indiana 3,Greensburg,IN,47240,39.2059759126737,-85.5753363871746
South Ripley,281,1589 S Benham Rd,Versailles,IN,47042,39.05147,-85.2500134147985
Center Grove,282,2717 S Morgantown Rd,Greenwood,IN,46143,39.5764289937433,-86.1967511992438
Christel House Academy,283,2717 S East St,Indianapolis,IN,46225,39.7277504036264,-86.1490280268312
Eminence,284,6760 IN-42,Martinsville,IN,46151,39.52451,-86.6416877820224
Franklin Community,285,2600 Cumberland Dr,Franklin,IN,46131,39.5111185907495,-86.085649253459
Greenwood Community,286,615 Smith Valley Rd,Greenwood,IN,46143,39.6060728932532,-86.1170265445105
Greenwood Christian Academy,287,835 West Worthsville Road,Greenwood,IN,46143,39.585765257895,-86.1238950980773
Monrovia,288,205 S Chestnut St,Monrovia,IN,46157,39.5777854894918,-86.4798020814081
Mooresville,289,550 N Indiana St,Mooresville,IN,46158,39.6198093385449,-86.3751631789813
Perry Meridian,290,401 W Meridian School Rd,Indianapolis,IN,46217,39.6493678900693,-86.1654517623049
Shelbyville,291,2003 S Miller St,Shelbyville,IN,46176,39.5059946370202,-85.7867705892557
Southport,292,971 E Banta Rd,Indianapolis,IN,46227,39.6719828686394,-86.1418092450875
Waldron,293,East St,Waldron,IN,46182,39.45874,-85.67207
Whiteland Community,294,300 E Main St,Whiteland,IN,46184,39.5501042333197,-86.0837563128516
Brown County,295,235 School House Ln,Nashville,IN,47448,39.203904027931,-86.244958328364
Brownstown Central,296,500 N Elm St,Brownstown,IN,47220,38.8854813275594,-86.0442975729245
Columbus East,297,230 S Marr Rd,Columbus,IN,47201,39.1925163166703,-85.8850448353652
Columbus North,298,1400 25th St,Columbus,IN,47201,39.2231071325916,-85.90971
Crothersville,299,109 Preston St,Crothersville,IN,47229,38.7981233766899,-85.8371535993922
Edinburgh,300,300 Keeley St,Edinburgh,IN,46124,39.3520089585951,-85.9698556495013
Hauser,301,9273 IN-9,Hope,IN,47246,39.2921602228642,-85.7712725003295
Indian Creek,302,803 Indian Meadows Dr,Trafalgar,IN,46181,39.38307,-86.16321
Martinsville,303,1360 E Gray St,Martinsville,IN,46151,39.4188251731294,-86.411110734791
Seymour,304,1350 W 2nd St,Seymour,IN,47274,38.9539909034985,-85.9064082997165
Southwestern (Shelbyville),305,3406 W 600 S,Shelbyville,IN,46176,39.4383264272399,-85.8448578090889
Trinity Lutheran,306,7120 N County Rd 875 E,Seymour,IN,47274,38.9777049047657,-85.8770016605893
White River Valley,307,5644 IN-54,Switz City,IN,47465,39.0347271325916,-87.0467528571428
Clay City,308,601 Lankford St,Clay City,IN,47841,39.2792413483268,-87.1103455653798
Linton-Stockton,309,801 NW 1st St,Linton,IN,47441,39.0412968157822,-87.167065860927
North Central (Farmersburg),310,910 E Co Rd 975 N,Farmersburg,IN,47850,39.2263158823855,-87.3910979996297
Northview,311,3150 IN-340,Brazil,IN,47834,39.5147264508314,-87.1658457771201
Owen Valley,312,622 State Rd 46,Spencer,IN,47460,39.2869528674084,-86.755185
Riverton Parke,313,4907 Coxville Rd,Montezuma,IN,47862,39.6980752933012,-87.3252012944318
Rockville,314,506 N Beadle St,Rockville,IN,47872,39.7675962555657,-87.231807939516
Shakamak,315,9233 Shakamak School Rd,Jasonville,IN,47438,39.1589133769019,-87.2123368545667
South Vermillion,316,770 Wildcat Dr,Clinton,IN,47842,39.6882828674084,-87.4127754113697
Sullivan,317,902 N Section St,Sullivan,IN,47882,39.104582068549,-87.4095853700804
Terre Haute North,318,3434 Maple Ave,Terre Haute,IN,47804,39.4923037223955,-87.3685090330924
Terre Haute South,319,3737 S 7th St,Terre Haute,IN,47802,39.4234266666667,-87.4070075238963
Turkey Run,320,1551 E State Road 47,Marshall,IN,47859,39.8783958826254,-87.212262733518
West Vigo,321,4590 W Sarah Myers Dr,West Terre Haute,IN,47885,39.4626522773734,-87.4884397533449
Bedford North Lawrence,322,595 Stars Blvd,Bedford,IN,47421,38.8761687409818,-86.4422161487978
Bloomfield,323,501 W Spring St,Bloomfield,IN,47424,39.0257728674084,-86.9463
Bloomington North,324,3901 N Kinser Pike,Bloomington,IN,47404,39.2010756065229,-86.5474401821198
Bloomington South,325,1965 S Walnut St,Bloomington,IN,47401,39.1450786210701,-86.5318549234073
Eastern (Pekin),326,1100 N Eastern School Rd,New Pekin,IN,47165,38.51383,-86.0030047412461
Eastern Greene,327,11064 Indiana 54,Bloomfield,IN,47424,39.0304988890772,-86.7363953353476
Edgewood,328,601 Edgewood Dr,Ellettsville,IN,47429,39.2341241406769,-86.6382870439837
Medora,329,82 S George St,Medora,IN,47260,38.8239011243266,-86.1716652319507
Mitchell,330,1000 W Bishop Blvd,Mitchell,IN,47446,38.7373072236572,-86.4788826937247
Orleans,331,200 W Wilson St,Orleans,IN,47452,38.6667971325916,-86.45417
Paoli,332,501 S Elm St,Paoli,IN,47454,38.5497923778334,-86.4762263094296
Salem,333,700 N Harrison St,Salem,IN,47167,38.6113517142857,-86.1062154967293
West Washington,334,8028 W Batts Rd,Campbellsburg,IN,47108,38.5854545051508,-86.23363569578
Austin,335,401 US-31,Austin,IN,47102,38.7381808811982,-85.8017271189325
Charlestown,336,1 Pirate Pl,Charlestown,IN,47111,38.4531218769151,-85.6659941687157
Henryville,337,213 N Ferguson St,Henryville,IN,47126,38.5438101157911,-85.7682368145923
Jennings County,338,800 W Walnut St,North Vernon,IN,47265,39.0012303928195,-85.6409674044122
Madison Consolidated,339,743 Clifty Dr,Madison,IN,47250,38.7745209039971,-85.4043828041503
New Washington,340,226 IN-62,New Washington,IN,47162,38.5617397123793,-85.5420415916992
Scottsburg,341,500 S Gardner St,Scottsburg,IN,47170,38.6815822864518,-85.7784553907021
Shawe Memorial,342,201 W State St,Madison,IN,47250,38.7583928674084,-85.3916833184948
Silver Creek,343,557 Renz Ave,Sellersburg,IN,47172,38.4087991210285,-85.7532782725842
Southwestern (Hanover),344,167 S Main Cross St,Hanover,IN,47243,38.7102759903303,-85.4738783161077
Switzerland County,345,1020 W Main St,Vevay,IN,47043,38.7369417310185,-85.0863632660233
Borden,346,301 West St,Borden,IN,47106,38.4688705541363,-85.9466501893976
Christian Academy of Indiana,347,1000 Academy Dr,New Albany,IN,47150,38.322951647288,-85.8213110570382
Clarksville,348,800 Dr Dot Lewis Dr,Clarksville,IN,47129,38.2994313275594,-85.7681637081417
Corydon Central,349,375 Country Club Rd SE,Corydon,IN,47112,38.200590091688,-86.1171430159623
Crawford County,350,1130 IN-66,Marengo,IN,47140,38.3536898824559,-86.3507473696071
Floyd Central,351,6575 Old Vincennes Rd,Floyds Knobs,IN,47119,38.3339975155352,-85.9309805162269
Jeffersonville,352,2315 Allison Ln,Jeffersonville,IN,47130,38.3182128324182,-85.7089544203833
Lanesville,353,2725 Crestview Ave NE,Lanesville,IN,47136,38.2397835324673,-85.9884483094087
New Albany,354,1020 Vincennes St,New Albany,IN,47150,38.2985418126448,-85.8120935758455
North Harrison,355,1070 IN-64,Ramsey,IN,47166,38.3204954124608,-86.144504321175
Providence,356,707 Providence Way,Clarksville,IN,47129,38.3049626174376,-85.7835744734507
South Central (Elizabeth),357,6675 IN-11,Elizabeth,IN,47117,38.1906246682637,-85.9401169564069
Cannelton,358,109 S 3rd St,Cannelton,IN,47520,37.9109354232726,-86.7445797276544
Forest Park,359,1440 Michigan St,Ferdinand,IN,47532,38.2270812900413,-86.858140413666
Heritage Hills,360,3644 E County Rd 1600 N,Lincoln City,IN,47552,38.12533,-87.00091
Jasper,361,1600 St Charles St,Jasper,IN,47546,38.41613,-86.95078
Loogootee,362,201 Brooks Ave,Loogootee,IN,47553,38.6789582225109,-86.9201807027342
Northeast Dubois,363,4711 N Dubois Rd NE,Dubois,IN,47527,38.4492892899526,-86.7970130868581
Perry Central,364,18677 Old State Rd 37,Leopold,IN,47551,38.1129010958255,-86.6026347879152
Shoals,365,7900 US-50,Shoals,IN,47581,38.6684358874545,-86.7789043852061
South Spencer,366,1142 N County Rd 275 W,Rockport,IN,47635,37.9037549399695,-87.1050113480204
Southridge,367,1110 S Main St,Huntingburg,IN,47542,38.2765317238758,-86.9612561474418
Springs Valley,368,326 S Larry Bird Blvd,French Lick,IN,47432,38.5501591159725,-86.6170420165782
Tell City,369,900 12th St,Tell City,IN,47586,37.9540144444444,-86.7643360852422
Barr-Reeve,370,298 3rd St,Montgomery,IN,47558,38.6645632528786,-87.047303438661
Gibson Southern,371,3499 W 800 S,Fort Branch,IN,47648,38.2380843392815,-87.6342604616851
North Daviess,372,5494 E State Rd 58,Elnora,IN,47529,38.8453371325916,-87.06025
North Knox,373,10890 State Hwy 159,Bicknell,IN,47512,38.8356114228624,-87.3156314810021
Pike Central,374,1810 IN-56,Petersburg,IN,47567,38.4361744841876,-87.2445041675918
Princeton Community,375,1101 N Main St,Princeton,IN,47670,38.36812,-87.5672749053306
South Knox,376,6116 IN-61,Vincennes,IN,47591,38.6353360243432,-87.423771181543
Tecumseh,377,5244 IN-68,Lynnville,IN,47619,38.1934112846347,-87.3413424700058
Vincennes Lincoln,378,1545 S Hart Street Rd,Vincennes,IN,47591,38.6514750607785,-87.4980312490262
Vincennes Rivet,379,210 Barnett St,Vincennes,IN,47591,38.6782053276731,-87.5345352692794
Washington,380,608 E Walnut St,Washington,IN,47501,38.658816312767,-87.1690044599393
Washington Catholic,381,201 NE 2nd St,Washington,IN,47501,38.65896250195,-87.1735317627997
Boonville,382,300 N 1st St,Boonville,IN,47601,38.0523385080389,-87.2768511551008
Castle,383,3344 IN-261,Newburgh,IN,47630,37.9858392482786,-87.3853430949847
Evansville Bosse,384,1300 Washington Ave,Evansville,IN,47714,37.9628971325916,-87.54081
Evansville Central,385,5400 N 1st Ave,Evansville,IN,47710,38.0290734705992,-87.5739540370343
Evansville Harrison,386,211 Fielding Rd,Evansville,IN,47715,37.9734943512236,-87.4852138733068
Evansville Mater Dei,387,1300 Harmony Way,Evansville,IN,47720,37.9890744680105,-87.6132611102288
Evansville Memorial,388,1500 Lincoln Ave,Evansville,IN,47714,37.9701071274073,-87.5373984874235
Evansville North,389,15331 Highway 41 N,Evansville,IN,47725,38.1174079129767,-87.5533946175364
Evansville F J Reitz,390,350 Dreier Blvd,Evansville,IN,47712,37.9731361922301,-87.6063561070238
Mt Vernon,391,700 Harriett St,Mt Vernon,IN,47620,37.9368541536396,-87.8879233203981
North Posey,392,5900 High School Rd,Poseyville,IN,47633,38.1406657556345,-87.8015300031184
Signature,393,610 Main St,Evansville,IN,47708,37.9728243857387,-87.5689608663462
